[{"OBJECT_NAME":"HXMT (HUIYAN)","OBJECT_ID":"2017-034A","EPOCH":"2026-03-08T23:42:22.967712","MEAN_MOTION":15.17452919,"ECCENTRICITY":0.00328458,"INCLINATION":43.0155,"RA_OF_ASC_NODE":20.5752,"ARG_OF_PERICENTER":231.721,"MEAN_ANOMALY":128.0682,"EPHEMERIS_TYPE":0,"CLASSIFICATION_TYPE":"U","NORAD_CAT_ID":42758,"ELEMENT_SET_NO":999,"REV_AT_EPOCH":48243,"BSTAR":0.00043514079,"MEAN_MOTION_DOT":8.761e-5,"MEAN_MOTION_DDOT":0},{"OBJECT_NAME":"SAOCOM 1A","OBJECT_ID":"2018-076A","EPOCH":"2026-03-08T22:48:30.011904","MEAN_MOTION":14.82171683,"ECCENTRICITY":0.00013226,"INCLINATION":97.8891,"RA_OF_ASC_NODE":256.1332,"ARG_OF_PERICENTER":84.0453,"MEAN_ANOMALY":276.0911,"EPHEMERIS_TYPE":0,"CLASSIFICATION_TYPE":"U","NORAD_CAT_ID":43641,"ELEMENT_SET_NO":999,"REV_AT_EPOCH":40125,"BSTAR":0.00018639992,"MEAN_MOTION_DOT":1.432e-5,"MEAN_MOTION_DDOT":0},{"OBJECT_NAME":"H-2A R/B","OBJECT_ID":"2018-084L","EPOCH":"2026-03-08T13:32:34.946304","MEAN_MOTION":15.4129344,"ECCENTRICITY":0.00255545,"INCLINATION":98.873,"RA_OF_ASC_NODE":284.7117,"ARG_OF_PERICENTER":29.1244,"MEAN_ANOMALY":331.1417,"EPHEMERIS_TYPE":0,"CLASSIFICATION_TYPE":"U","NORAD_CAT_ID":43682,"ELEMENT_SET_NO":999,"REV_AT_EPOCH":40560,"BSTAR":0.00069755934,"MEAN_MOTION_DOT":0.0002935,"MEAN_MOTION_DDOT":0},{"OBJECT_NAME":"SAOCOM 1B","OBJECT_ID":"2020-059A","EPOCH":"2026-03-06T22:57:01.124064","MEAN_MOTION":14.82173062,"ECCENTRICITY":0.00015046,"INCLINATION":97.8885,"RA_OF_ASC_NODE":253.2654,"ARG_OF_PERICENTER":81.2285,"MEAN_ANOMALY":278.9098,"EPHEMERIS_TYPE":0,"CLASSIFICATION_TYPE":"U","NORAD_CAT_ID":46265,"ELEMENT_SET_NO":999,"REV_AT_EPOCH":29834,"BSTAR":0.00017595012,"MEAN_MOTION_DOT":1.349e-5,"MEAN_MOTION_DDOT":0},{"OBJECT_NAME":"CSS (TIANHE)","OBJECT_ID":"2021-035A","EPOCH":"2026-03-08T19:40:20.057376","MEAN_MOTION":15.60610742,"ECCENTRICITY":0.00069989,"INCLINATION":41.4664,"RA_OF_ASC_NODE":213.4556,"ARG_OF_PERICENTER":268.3248,"MEAN_ANOMALY":91.6789,"EPHEMERIS_TYPE":0,"CLASSIFICATION_TYPE":"U","NORAD_CAT_ID":48274,"ELEMENT_SET_NO":999,"REV_AT_EPOCH":27747,"BSTAR":0.00034617107,"MEAN_MOTION_DOT":0.00029275,"MEAN_MOTION_DDOT":0},{"OBJECT_NAME":"COSMOS 2550","OBJECT_ID":"2021-056A","EPOCH":"2026-03-08T11:22:34.326624","MEAN_MOTION":15.33829151,"ECCENTRICITY":0.00083692,"INCLINATION":67.1451,"RA_OF_ASC_NODE":44.6088,"ARG_OF_PERICENTER":269.6014,"MEAN_ANOMALY":90.4182,"EPHEMERIS_TYPE":0,"CLASSIFICATION_TYPE":"U","NORAD_CAT_ID":48865,"ELEMENT_SET_NO":999,"REV_AT_EPOCH":26327,"BSTAR":-1.3338e-8,"MEAN_MOTION_DOT":-1.92e-6,"MEAN_MOTION_DDOT":0},{"OBJECT_NAME":"CZ-2C R/B","OBJECT_ID":"2022-058K","EPOCH":"2026-03-08T02:20:56.384448","MEAN_MOTION":15.54100851,"ECCENTRICITY":0.00421766,"INCLINATION":50.1897,"RA_OF_ASC_NODE":326.4776,"ARG_OF_PERICENTER":194.0797,"MEAN_ANOMALY":165.9,"EPHEMERIS_TYPE":0,"CLASSIFICATION_TYPE":"U","NORAD_CAT_ID":52794,"ELEMENT_SET_NO":999,"REV_AT_EPOCH":20988,"BSTAR":0.00068668989,"MEAN_MOTION_DOT":0.00047047,"MEAN_MOTION_DDOT":0},{"OBJECT_NAME":"CZ-2C R/B","OBJECT_ID":"2022-132E","EPOCH":"2026-03-08T22:09:20.706912","MEAN_MOTION":15.61773352,"ECCENTRICITY":0.00206516,"INCLINATION":97.2971,"RA_OF_ASC_NODE":71.2164,"ARG_OF_PERICENTER":93.9073,"MEAN_ANOMALY":266.4546,"EPHEMERIS_TYPE":0,"CLASSIFICATION_TYPE":"U","NORAD_CAT_ID":54039,"ELEMENT_SET_NO":999,"REV_AT_EPOCH":19025,"BSTAR":0.00059228013,"MEAN_MOTION_DOT":0.00051857,"MEAN_MOTION_DDOT":0},{"OBJECT_NAME":"GSLV R/B","OBJECT_ID":"2022-138AN","EPOCH":"2026-03-08T18:50:10.431744","MEAN_MOTION":14.96767666,"ECCENTRICITY":0.00229095,"INCLINATION":87.3877,"RA_OF_ASC_NODE":166.6651,"ARG_OF_PERICENTER":149.8925,"MEAN_ANOMALY":210.3629,"EPHEMERIS_TYPE":0,"CLASSIFICATION_TYPE":"U","NORAD_CAT_ID":54149,"ELEMENT_SET_NO":999,"REV_AT_EPOCH":18379,"BSTAR":0.00036480596,"MEAN_MOTION_DOT":4.221e-5,"MEAN_MOTION_DDOT":0},{"OBJECT_NAME":"XRISM","OBJECT_ID":"2023-137A","EPOCH":"2026-03-08T23:31:33.542976","MEAN_MOTION":15.11493622,"ECCENTRICITY":0.0008039,"INCLINATION":31.0015,"RA_OF_ASC_NODE":288.2532,"ARG_OF_PERICENTER":31.3997,"MEAN_ANOMALY":328.712,"EPHEMERIS_TYPE":0,"CLASSIFICATION_TYPE":"U","NORAD_CAT_ID":57800,"ELEMENT_SET_NO":999,"REV_AT_EPOCH":13768,"BSTAR":0.00043682112,"MEAN_MOTION_DOT":7.684e-5,"MEAN_MOTION_DDOT":0},{"OBJECT_NAME":"ACS3","OBJECT_ID":"2024-077B","EPOCH":"2026-03-08T20:23:55.260096","MEAN_MOTION":13.89586973,"ECCENTRICITY":0.00590059,"INCLINATION":97.2078,"RA_OF_ASC_NODE":9.1508,"ARG_OF_PERICENTER":78.9295,"MEAN_ANOMALY":281.8497,"EPHEMERIS_TYPE":0,"CLASSIFICATION_TYPE":"U","NORAD_CAT_ID":59588,"ELEMENT_SET_NO":999,"REV_AT_EPOCH":9408,"BSTAR":0.028801941,"MEAN_MOTION_DOT":0.0003588,"MEAN_MOTION_DDOT":0},{"OBJECT_NAME":"SZ-21 MODULE","OBJECT_ID":"2025-246C","EPOCH":"2026-03-08T17:40:24.022560","MEAN_MOTION":15.68463397,"ECCENTRICITY":0.00013651,"INCLINATION":41.4736,"RA_OF_ASC_NODE":209.2286,"ARG_OF_PERICENTER":296.9264,"MEAN_ANOMALY":63.1439,"EPHEMERIS_TYPE":0,"CLASSIFICATION_TYPE":"U","NORAD_CAT_ID":66515,"ELEMENT_SET_NO":999,"REV_AT_EPOCH":1792,"BSTAR":0.0004111263,"MEAN_MOTION_DOT":0.00047754,"MEAN_MOTION_DDOT":0}]
